STARLINK-4473           
1 53660U 22105N   24012.65820672  .00000509  00000+0  44254-4 0  9991
2 53660  97.6542 255.7311 0002550  49.1832 310.9613 15.01264519 75434
STARLINK-4472           
1 53661U 22105P   24012.59365992 -.00000980  00000+0 -71727-4 0  9994
2 53661  97.6538 255.6711 0002886  47.0718 313.0747 15.01252131 75142
STARLINK-4357           
1 53662U 22105Q   24012.58810209  .00000966  00000+0  79789-4 0  9998
2 53662  97.6537 255.6596 0002211  95.8216 264.3260 15.01253733 75146
STARLINK-4457           
1 53663U 22105R   24012.59340835 -.00000035  00000+0  18760-5 0  9994
2 53663  97.6543 255.6672 0002395  52.1363 308.0078 15.01258787 75148
STARLINK-4471           
1 53664U 22105S   24012.58439516  .00001834  00000+0  14738-3 0  9995
2 53664  97.6540 255.6597 0001529  89.6438 270.4961 15.01254256 75148
STARLINK-4334           
1 53665U 22105T   24012.58600551  .00000204  00000+0  20508-4 0  9998
2 53665  97.6537 255.6679 0001783  82.6166 277.5260 15.01250738 75140
STARLINK-4449           
1 53666U 22105U   24012.58045159 -.00000828  00000+0 -59922-4 0  9992
2 53666  97.6530 255.6565 0002140  92.4276 267.7193 15.01250489 75146
STARLINK-4406           
1 53667U 22105V   24012.65635610  .00000482  00000+0  42123-4 0  9997
2 53667  97.6541 255.7274 0001852  63.9337 296.2078 15.01261729 75437
STARLINK-4458           
1 53668U 22105W   24012.57213706  .00000328  00000+0  30971-4 0  9994
2 53668  97.6545 255.6372 0001535  82.1180 278.0218 15.00121302 75140
STARLINK-4464           
1 53669U 22105X   24012.65450368  .00000588  00000+0  50350-4 0  9992
2 53669  97.6545 255.7160 0002107  83.7041 276.4423 15.01265124 75430
STARLINK-4459           
1 53670U 22105Y   24012.57860063  .00007343  00000+0  57550-3 0  9996
2 53670  97.6536 255.6503 0001495  99.9373 260.2020 15.01274988 75148
STARLINK-4440           
1 53671U 22105Z   24012.57884472  .00001326  00000+0  10777-3 0  9992
2 53671  97.6539 255.6534 0001564  88.2413 271.8990 15.01260057 75145
STARLINK-4428           
1 53672U 22105AA  24012.57699418 -.00000092  00000+0 -25387-5 0  9993
2 53672  97.6540 255.6434 0001495  89.7317 270.4078 15.01249546 75141
STARLINK-4456           
1 53673U 22105AB  24012.61286927  .00002897  00000+0  23484-3 0  9993
2 53673  97.6559 255.8169 0005324  54.2246 305.9472 15.00455885 75159
STARLINK-4620           
1 53674U 22105AC  24012.57305033 -.00000923  00000+0 -67263-4 0  9993
2 53674  97.6547 255.6438 0001515  71.6084 288.5305 15.01248043 75142
STARLINK-4617           
1 53675U 22105AD  24012.56748810  .00000435  00000+0  38458-4 0  9997
2 53675  97.6546 255.6600 0001642  91.6237 268.5175 15.01255843 75145
STARLINK-4621           
1 53676U 22105AE  24012.56933829  .00001354  00000+0  10996-3 0  9991
2 53676  97.6540 255.6407 0001938  95.9868 264.1577 15.01258136 75146
STARLINK-4579           
1 53677U 22105AF  24012.57490008 -.00000015  00000+0  34461-5 0  9999
2 53677  97.6545 255.6450 0001553  76.7805 283.3592 15.01247646 75145
STARLINK-4418           
1 53678U 22105AG  24012.57513620  .00000524  00000+0  45400-4 0  9994
2 53678  97.6542 255.6281 0001021  91.6265 268.5076 15.01261006 75149
STARLINK-4632           
1 53679U 22105AH  24012.57119388 -.00000118  00000+0 -46252-5 0  9996
2 53679  97.6542 255.6426 0001874  94.6961 265.4477 15.01254745 75146
STARLINK-4630           
1 53680U 22105AJ  24012.56378868  .00000413  00000+0  36728-4 0  9999
2 53680  97.6558 255.6382 0002421  77.0324 283.1170 15.01257764 75144
STARLINK-4424           
1 53681U 22105AK  24012.62858479  .00001131  00000+0  92652-4 0  9994
2 53681  97.6571 255.7160 0002043  78.0855 282.0598 15.01259731 75154
STARLINK-4438           
1 53682U 22105AL  24012.61933043  .00000634  00000+0  53975-4 0  9997
2 53682  97.6552 255.7224 0003372  85.8895 274.2715 15.01257834 75157
STARLINK-4625           
1 53683U 22105AM  24012.63228463  .00003591  00000+0  28394-3 0  9994
2 53683  97.6551 255.7032 0001619  75.1391 285.0012 15.01274767 75434
STARLINK-4624           
1 53684U 22105AN  24012.65079242  .00001604  00000+0  12943-3 0  9992
2 53684  97.6541 255.7864 0001984  84.1216 276.0235 15.01262691 75438
STARLINK-4626           
1 53685U 22105AP  24012.62697704  .00001745  00000+0  14039-3 0  9993
2 53685  97.6580 255.7079 0001839  83.3935 276.7499 15.01262160 75438
STARLINK-4467           
1 53686U 22105AQ  24012.59896087  .00000176  00000+0  18347-4 0  9999
2 53686  97.6540 255.7400 0004880  33.8591 326.2943 15.01257053 75159
STARLINK-4569           
1 53687U 22105AR  24012.62673299  .00001796  00000+0  14436-3 0  9995
2 53687  97.6577 255.7035 0002036  96.0984 264.0472 15.01257684 75158
STARLINK-4571           
1 53688U 22105AS  24012.62118383  .00000381  00000+0  34273-4 0  9995
2 53688  97.6562 255.7040 0002660 100.8661 259.2862 15.01257004 75153
STARLINK-4562           
1 53689U 22105AT  24012.60847038 -.00000013  00000+0  36100-5 0  9995
2 53689  97.6543 255.7290 0005218  53.3143 306.8560 15.01254676 75155
STARLINK-4570           
1 53690U 22105AU  24012.57675297 -.00000115  00000+0 -43521-5 0  9998
2 53690  97.6540 255.5927 0001546  97.4721 262.6679 15.01252999 75145
STARLINK-4560           
1 53691U 22105AV  24012.62303321  .00001109  00000+0  90955-4 0  9995
2 53691  97.6565 255.6961 0002304  84.2576 275.8911 15.01262392 75151
STARLINK-4572           
1 53692U 22105AW  24012.68412259  .00002396  00000+0  19099-3 0  9991
2 53692  97.6557 255.7694 0004065  77.9034 282.2646 15.01271501 75442
STARLINK-4566           
1 53693U 22105AX  24012.61563159  .00000850  00000+0  70737-4 0  9991
2 53693  97.6550 255.7010 0004030  80.8391 279.3289 15.01257644 75159
STARLINK-4725           
1 53700U 22107A   24012.58892879  .00000599  00000+0  55721-4 0  9998
2 53700  53.2163 177.1806 0001316  88.6662 271.4481 15.08837038 76030
STARLINK-4711           
1 53701U 22107B   24012.71772408  .00000885  00000+0  73696-4 0  9998
2 53701  53.2157 176.5633 0001885  75.5675 284.5526 15.08840324 75301
STARLINK-4724           
1 53702U 22107C   24012.61058126 -.00000254  00000+0  21283-5 0  9999
2 53702  53.2167 162.3557 0001591 110.0478 250.0685 15.08839176 76275
STARLINK-4731           
1 53703U 22107D   24012.59998109 -.00000167  00000+0  75756-5 0  9998
2 53703  53.2157 177.2467 0001574 109.1582 250.9581 15.08840868 76034
STARLINK-4714           
1 53704U 22107E   24012.71412434 -.00001428  00000+0 -71673-4 0  9990
2 53704  53.2151 177.2469 0001457  93.0493 267.0665 15.08837968 75299
STARLINK-4717           
1 53705U 22107F   24012.77668006  .00000374  00000+0  41567-4 0  9991
2 53705  53.2162 176.9264 0001328  82.6742 277.4401 15.08845068 75304
STARLINK-4716           
1 53706U 22107G   24012.82818024  .00001010  00000+0  81528-4 0  9994
2 53706  53.2152 176.5379 0001271  87.2467 272.8671 15.08839037 75317
STARLINK-4667           
1 53707U 22107H   24012.82035274 -.00000723  00000+0 -27341-4 0  9998
2 53707  53.2170 161.5274 0001402 111.1273 248.9869 15.08841227 75524
STARLINK-4694           
1 53708U 22107J   24012.80561320  .00000535  00000+0  51700-4 0  9998
2 53708  53.2164 161.4453 0001327 109.0658 251.0478 15.08842776 75526
STARLINK-4685           
1 53709U 22107K   24012.46151865 -.00000155  00000+0  83642-5 0  9990
2 53709  53.2169 182.8158 0001265 116.8699 243.2423 15.08836607 75634
STARLINK-4627           
1 53711U 22107M   24012.73752983 -.00000155  00000+0  83584-5 0  9996
2 53711  53.2163 181.6925 0001375  83.1435 276.9713 15.08839976 75239
STARLINK-4683           
1 53712U 22107N   24012.44678263  .00000422  00000+0  44590-4 0  9992
2 53712  53.2162 182.7384 0001313  87.2070 272.9073 15.08834696 75657
STARLINK-4698           
1 53713U 22107P   24012.78672932  .00001188  00000+0  92728-4 0  9993
2 53713  53.2178 186.2727 0001258 102.5201 257.5932 15.08835585 75178
STARLINK-4688           
1 53714U 22107Q   24012.59952678  .00000204  00000+0  30898-4 0  9999
2 53714  53.2156 162.2828 0001364  84.0885 276.0263 15.08839817 75930
STARLINK-4686           
1 53715U 22107R   24012.46657777  .00001460  00000+0  10980-3 0  9992
2 53715  53.2169 187.8224 0001431  97.2982 262.8173 15.08830403 75572
STARLINK-4699           
1 53716U 22107S   24012.79410834  .00002708  00000+0  18817-3 0  9993
2 53716  53.2165 186.3106 0001213  89.0560 271.0571 15.08833216 75165
STARLINK-4695           
1 53718U 22107U   24012.71784733  .00000072  00000+0  22632-4 0  9992
2 53718  53.2161 187.2358 0001281  99.9265 260.1872 15.08833753 75146
STARLINK-4644           
1 53719U 22107V   24012.65332637 -.00002468  00000+0 -13698-3 0  9992
2 53719  53.2170 156.8815 0001383 105.4074 254.7071 15.08845040 75558
STARLINK-4642           
1 53720U 22107W   24012.47026569  .00001145  00000+0  90050-4 0  9995
2 53720  53.2150 187.8462 0001922  75.2651 284.8554 15.08839661 75578
STARLINK-4707           
1 53721U 22107X   24012.47763458  .00000013  00000+0  18928-4 0  9998
2 53721  53.2151 187.8893 0001318  83.0747 277.0395 15.08839570 75576
STARLINK-4700           
1 53722U 22107Y   24012.74996319  .00000354  00000+0  40315-4 0  9996
2 53722  53.2161 186.7429 0001365  84.1862 275.9286 15.08839075 75153
STARLINK-4705           
1 53723U 22107Z   24012.45921214  .00001105  00000+0  87477-4 0  9992
2 53723  53.2166 187.7817 0001283  91.1881 268.9258 15.08838313 75716
STARLINK-4663           
1 53724U 22107AA  24012.80516121  .00011116  00000+0  71654-3 0  9991
2 53724  53.2162 186.3796 0001399 102.4305 257.6844 15.08782471 75167
STARLINK-4697           
1 53726U 22107AC  24012.74628313  .00002513  00000+0  17586-3 0  9998
2 53726  53.2156 186.7217 0001309  83.6503 276.4639 15.08848486 75154
STARLINK-4701           
1 53727U 22107AD  24012.62485196 -.00000389  00000+0 -63777-5 0  9992
2 53727  53.2156 187.3847 0001362  96.4104 263.7044 15.08838162 75732
